{
  "type": "FeatureCollection",
  "features": [
    {
      "type": "Feature",
      "properties": {
        "norad_id": 34022,
        "name": "COSMOS 2251 DEB",
        "group": "cosmos-2251-debris",
        "lat": 25.746911856179388,
        "lon": 87.47461208803794,
        "alt_km": 776.7334388937961,
        "timestamp": "2025-12-10T05:46:14.220137+00:00",
        "meta_object_name": "COSMOS 2251 DEB",
        "meta_object_id": "1993-036HH",
        "meta_epoch": "2025-12-09T19:11:31.087968",
        "meta_mean_motion": 14.38956843,
        "meta_eccentricity": 0.0022618,
        "meta_inclination": 74.0542,
        "meta_ra_of_asc_node": 276.212,
        "meta_arg_of_pericenter": 341.6829,
        "meta_mean_anomaly": 48.913,
        "meta_ephemeris_type": 0,
        "meta_classification_type": "U",
        "meta_norad_cat_id": 34022,
        "meta_element_set_no": 999,
        "meta_rev_at_epoch": 88153,
        "meta_bstar": 0.00044516,
        "meta_mean_motion_dot": 1.351e-05,
        "meta_mean_motion_ddot": 0,
        "tle_line1": "1 34022U 93036HH  25343.79966537  .00001351  00000+0  44516-3 0  9993",
        "tle_line2": "2 34022  74.0542 276.2120 0022618 341.6829  48.9130 14.38956843881538"
      },
      "geometry": {
        "type": "Point",
        "coordinates": [
          87.47461208803794,
          25.746911856179388
        ]
      }
    },
    {
      "type": "Feature",
      "properties": {
        "norad_id": 34023,
        "name": "COSMOS 2251 DEB",
        "group": "cosmos-2251-debris",
        "lat": 54.77677355883679,
        "lon": -79.69552977367817,
        "alt_km": 745.7246769738822,
        "timestamp": "2025-12-10T05:46:14.220147+00:00",
        "meta_object_name": "COSMOS 2251 DEB",
        "meta_object_id": "1993-036HJ",
        "meta_epoch": "2025-12-09T17:58:14.382048",
        "meta_mean_motion": 14.40551699,
        "meta_eccentricity": 0.0018377,
        "meta_inclination": 74.0257,
        "meta_ra_of_asc_node": 257.2781,
        "meta_arg_of_pericenter": 353.4618,
        "meta_mean_anomaly": 35.8485,
        "meta_ephemeris_type": 0,
        "meta_classification_type": "U",
        "meta_norad_cat_id": 34023,
        "meta_element_set_no": 999,
        "meta_rev_at_epoch": 88171,
        "meta_bstar": 0.00061747,
        "meta_mean_motion_dot": 1.944e-05,
        "meta_mean_motion_ddot": 0,
        "tle_line1": "1 34023U 93036HJ  25343.74877757  .00001944  00000+0  61747-3 0  9997",
        "tle_line2": "2 34023  74.0257 257.2781 0018377 353.4618  35.8485 14.40551699881719"
      },
      "geometry": {
        "type": "Point",
        "coordinates": [
          -79.69552977367817,
          54.77677355883679
        ]
      }
    },
    {
      "type": "Feature",
      "properties": {
        "norad_id": 34024,
        "name": "COSMOS 2251 DEB",
        "group": "cosmos-2251-debris",
        "lat": 61.2586579445901,
        "lon": 109.13535284460174,
        "alt_km": 770.5919146818705,
        "timestamp": "2025-12-10T05:46:14.220157+00:00",
        "meta_object_name": "COSMOS 2251 DEB",
        "meta_object_id": "1993-036HK",
        "meta_epoch": "2025-12-09T16:41:13.430976",
        "meta_mean_motion": 14.35391298,
        "meta_eccentricity": 0.00209,
        "meta_inclination": 74.0463,
        "meta_ra_of_asc_node": 321.5736,
        "meta_arg_of_pericenter": 13.0663,
        "meta_mean_anomaly": 165.0073,
        "meta_ephemeris_type": 0,
        "meta_classification_type": "U",
        "meta_norad_cat_id": 34024,
        "meta_element_set_no": 999,
        "meta_rev_at_epoch": 87980,
        "meta_bstar": 0.00034993,
        "meta_mean_motion_dot": 9.81e-06,
        "meta_mean_motion_ddot": 0,
        "tle_line1": "1 34024U 93036HK  25343.69529434  .00000981  00000+0  34993-3 0  9991",
        "tle_line2": "2 34024  74.0463 321.5736 0020900  13.0663 165.0073 14.35391298879805"
      },
      "geometry": {
        "type": "Point",
        "coordinates": [
          109.13535284460174,
          61.2586579445901
        ]
      }
    },
    {
      "type": "Feature",
      "properties": {
        "norad_id": 34026,
        "name": "COSMOS 2251 DEB",
        "group": "cosmos-2251-debris",
        "lat": -73.29976615118493,
        "lon": -94.718290924389,
        "alt_km": 895.1215836256561,
        "timestamp": "2025-12-10T05:46:14.220167+00:00",
        "meta_object_name": "COSMOS 2251 DEB",
        "meta_object_id": "1993-036HM",
        "meta_epoch": "2025-12-09T18:45:39.985056",
        "meta_mean_motion": 13.65302414,
        "meta_eccentricity": 0.0350795,
        "meta_inclination": 73.768,
        "meta_ra_of_asc_node": 342.2045,
        "meta_arg_of_pericenter": 212.6614,
        "meta_mean_anomaly": 323.9146,
        "meta_ephemeris_type": 0,
        "meta_classification_type": "U",
        "meta_norad_cat_id": 34026,
        "meta_element_set_no": 999,
        "meta_rev_at_epoch": 83491,
        "meta_bstar": 0.0013482,
        "meta_mean_motion_dot": 1.645e-05,
        "meta_mean_motion_ddot": 0,
        "tle_line1": "1 34026U 93036HM  25343.78171279  .00001645  00000+0  13482-2 0  9990",
        "tle_line2": "2 34026  73.7680 342.2045 0350795 212.6614 323.9146 13.65302414834911"
      },
      "geometry": {
        "type": "Point",
        "coordinates": [
          -94.718290924389,
          -73.29976615118493
        ]
      }
    },
    {
      "type": "Feature",
      "properties": {
        "norad_id": 34028,
        "name": "COSMOS 2251 DEB",
        "group": "cosmos-2251-debris",
        "lat": -32.22271110379385,
        "lon": -19.416829364381584,
        "alt_km": 1579.1730571321114,
        "timestamp": "2025-12-10T05:46:14.220178+00:00",
        "meta_object_name": "COSMOS 2251 DEB",
        "meta_object_id": "1993-036HP",
        "meta_epoch": "2025-12-09T10:32:50.848224",
        "meta_mean_motion": 13.20619741,
        "meta_eccentricity": 0.05438084,
        "meta_inclination": 73.8834,
        "meta_ra_of_asc_node": 352.3102,
        "meta_arg_of_pericenter": 130.7206,
        "meta_mean_anomaly": 350.9452,
        "meta_ephemeris_type": 0,
        "meta_classification_type": "U",
        "meta_norad_cat_id": 34028,
        "meta_element_set_no": 999,
        "meta_rev_at_epoch": 80964,
        "meta_bstar": 0.00046558148,
        "meta_mean_motion_dot": 3.94e-06,
        "meta_mean_motion_ddot": 0,
        "tle_line1": "1 34028U 93036HP  25343.43947741  .00000394  00000+0  46558-3 0  9990",
        "tle_line2": "2 34028  73.8834 352.3102 0543808 130.7206 350.9452 13.20619741809644"
      },
      "geometry": {
        "type": "Point",
        "coordinates": [
          -19.416829364381584,
          -32.22271110379385
        ]
      }
    },
    {
      "type": "Feature",
      "properties": {
        "norad_id": 34031,
        "name": "COSMOS 2251 DEB",
        "group": "cosmos-2251-debris",
        "lat": 72.43733024160822,
        "lon": -154.5825004731089,
        "alt_km": 703.3176221348131,
        "timestamp": "2025-12-10T05:46:14.220188+00:00",
        "meta_object_name": "COSMOS 2251 DEB",
        "meta_object_id": "1993-036HS",
        "meta_epoch": "2025-12-08T21:03:52.943040",
        "meta_mean_motion": 14.59609955,
        "meta_eccentricity": 0.0023021,
        "meta_inclination": 74.0126,
        "meta_ra_of_asc_node": 143.0836,
        "meta_arg_of_pericenter": 263.6236,
        "meta_mean_anomaly": 221.2597,
        "meta_ephemeris_type": 0,
        "meta_classification_type": "U",
        "meta_norad_cat_id": 34031,
        "meta_element_set_no": 999,
        "meta_rev_at_epoch": 88509,
        "meta_bstar": 0.0016262,
        "meta_mean_motion_dot": 7.745e-05,
        "meta_mean_motion_ddot": 0,
        "tle_line1": "1 34031U 93036HS  25342.87769610  .00007745  00000+0  16262-2 0  9993",
        "tle_line2": "2 34031  74.0126 143.0836 0023021 263.6236 221.2597 14.59609955885095"
      },
      "geometry": {
        "type": "Point",
        "coordinates": [
          -154.5825004731089,
          72.43733024160822
        ]
      }
    },
    {
      "type": "Feature",
      "properties": {
        "norad_id": 34035,
        "name": "COSMOS 2251 DEB",
        "group": "cosmos-2251-debris",
        "lat": -42.85185858872224,
        "lon": -21.529133552589013,
        "alt_km": 701.8019212214031,
        "timestamp": "2025-12-10T05:46:14.220198+00:00",
        "meta_object_name": "COSMOS 2251 DEB",
        "meta_object_id": "1993-036HW",
        "meta_epoch": "2025-12-09T10:42:04.965984",
        "meta_mean_motion": 14.51873839,
        "meta_eccentricity": 0.00444917,
        "meta_inclination": 74.0659,
        "meta_ra_of_asc_node": 355.3329,
        "meta_arg_of_pericenter": 357.5517,
        "meta_mean_anomaly": 126.6094,
        "meta_ephemeris_type": 0,
        "meta_classification_type": "U",
        "meta_norad_cat_id": 34035,
        "meta_element_set_no": 999,
        "meta_rev_at_epoch": 87918,
        "meta_bstar": 0.0023465551,
        "meta_mean_motion_dot": 9.562e-05,
        "meta_mean_motion_ddot": 0,
        "tle_line1": "1 34035U 93036HW  25343.44589081  .00009562  00000+0  23466-2 0  9996",
        "tle_line2": "2 34035  74.0659 355.3329 0044491 357.5517 126.6094 14.51873839879183"
      },
      "geometry": {
        "type": "Point",
        "coordinates": [
          -21.529133552589013,
          -42.85185858872224
        ]
      }
    }
  ]
}